DELTA 1 R/B             
1 20323U 89089B   25298.21463781  .00000500  00000+0  13283-3 0  9996
2 20323  97.0808 162.1311 0068845 189.5221 170.4677 14.50512962876095
ARIANE 40 R/B           
1 20443U 90005H   25298.16159134  .00000482  00000+0  16722-3 0  9997
2 20443  98.3309 357.6968 0009047 249.9993 110.0222 14.39742683873302
DELTA 2 R/B(1)          
1 20453U 90008B   25298.15783511  .00038719  00000+0  70694-3 0  9994
2 20453  35.6077 333.1940 0118585  96.5324 264.8923 15.40900875905124
COSMOS 2058             
1 20465U 90010A   25298.19023950  .00004649  00000+0  28450-3 0  9996
2 20465  82.4711 180.7771 0011222  76.3534 283.8945 15.09947634921783
SL-14 R/B               
1 20466U 90010B   25298.31453576  .00000724  00000+0  85080-4 0  9995
2 20466  82.5053  34.5146 0020552  29.9390 330.2995 14.83404696908410
SL-14 R/B               
1 20511U 90018B   25298.20211550  .00000612  00000+0  74074-4 0  9993
2 20511  82.5232 349.7332 0016612 172.8675 187.2779 14.81980554902519
HST                     
1 20580U 90037B   25298.18540833  .00010258  00000+0  36633-3 0  9991
2 20580  28.4680 242.7474 0002152  56.7096 303.3705 15.27131570752566
SL-16 R/B               
1 20625U 90046B   25298.25064605  .00000307  00000+0  18298-3 0  9998
2 20625  70.9996 222.3495 0013234 158.8624 201.3048 14.14989734829233
COSMOS 2084             
1 20663U 90055A   25298.12441794  .00006103  00000+0  43952-3 0  9999
2 20663  62.7903  77.5864 0040002 169.0797 191.1181 15.04560642915918
SL-6 R/B(2)             
1 20666U 90055D   25298.26261469  .00003025  00000+0  23964-3 0  9997
2 20666  62.7851 354.0892 0010761 263.9014  96.0859 15.02723773917834
SL-8 R/B                
1 20775U 90078B   25298.20454694  .00020727  00000+0  64282-3 0  9997
2 20775  82.9088  12.6470 0384057 107.9407 256.4068 14.83557089789176
SL-8 R/B                
1 21088U 91006B   25298.21911201  .00000179  00000+0  16462-3 0  9996
2 21088  82.9390 270.8099 0023754  56.6806 314.3259 13.77478490745428
OKEAN-3                 
1 21397U 91039A   25297.97728804  .00004076  00000+0  29525-3 0  9996
2 21397  82.5144 108.2283 0015732  74.3258 285.9702 15.03633880844634
COSMOS 2151             
1 21422U 91042A   25298.24531137  .00003517  00000+0  28457-3 0  9993
2 21422  82.4992 214.2171 0013159 149.3088 210.8908 14.99421641842897
SL-14 R/B               
1 21423U 91042B   25298.22692514  .00000575  00000+0  69997-4 0  9995
2 21423  82.4946 347.2188 0016231 330.9188  29.1120 14.81675666833015
ERS-1                   
1 21574U 91050A   25298.00590555  .00000488  00000+0  17123-3 0  9995
2 21574  98.7934 307.8339 0031032 244.0384 115.7604 14.39308934796211
ARIANE 40 R/B           
1 21610U 91050F   25298.17145131  .00000526  00000+0  17056-3 0  9998
2 21610  98.2236 350.3382 0004241 117.1401 243.0222 14.42751938799455
INTERCOSMOS 25          
1 21819U 91086A   25298.25221660  .00001268  00000+0  24293-3 0  9994
2 21819  82.6090  31.8729 1489041  48.8647 323.1667 12.11532424480287
SL-8 R/B                
1 21876U 92008B   25298.32482391  .00000120  00000+0  10739-3 0  9996
2 21876  82.9308   8.4526 0035480 150.9680 284.7413 13.75945234690805
SL-8 R/B                
1 21938U 92020B   25298.33308815  .00000059  00000+0  45226-4 0  9999
2 21938  82.9284 254.2638 0028132 318.1046 153.0516 13.75519077682526
USA 81                  
1 21949U 92023A   25298.20164501  .00000318  00000+0  11049-3 0  9995
2 21949  85.0117 209.5590 0002747  92.8040 267.3467 14.32300439 75390
COSMOS 2219             
1 22219U 92076A   25298.26816434  .00000374  00000+0  22082-3 0  9990
2 22219  71.0587 301.1562 0016552  42.5509 317.6893 14.14051555699235
SL-16 R/B               
1 22220U 92076B   25298.23635456 -.00000158  00000+0 -54771-4 0  9995
2 22220  70.9974 113.7001 0014912 296.9830 236.2993 14.16829017702645
COSMOS 2221             
1 22236U 92080A   25298.31265421  .00003431  00000+0  30747-3 0  9998
2 22236  82.5063  48.6560 0013249 288.9536  71.0249 14.95468271760553
SL-16 R/B               
1 22285U 92093B   25298.26354069 -.00000213  00000+0 -84742-4 0  9999
2 22285  71.0203 288.5559 0003815 190.0674 170.0373 14.15419300693995
COSMOS 2228             
1 22286U 92094A   25298.28269596  .00003181  00000+0  27752-3 0  9995
2 22286  82.5210   6.8860 0019037  41.8079 318.4593 14.96411862755807
SL-16 R/B               
1 22566U 93016B   25298.29049488  .00000007  00000+0  28126-4 0  9999
2 22566  71.0062 139.5585 0010003 182.9142 177.1924 14.15280394683012
COSMOS 2242             
1 22626U 93024A   25298.27539301  .00003275  00000+0  29041-3 0  9997
2 22626  82.5221  36.1465 0017396  44.6440 315.6179 14.95808912760140
SL-16 R/B               
1 22803U 93059B   25298.31264309  .00000256  00000+0  15034-3 0  9993
2 22803  70.9892 296.6056 0015229  51.3785 308.8700 14.17201284660350
ARIANE 40 R/B           
1 22830U 93061H   25298.22292677  .00000384  00000+0  15701-3 0  9998
2 22830  98.5132   4.6223 0010020 330.5682  29.4937 14.32746974674707
COSMOS 2278             
1 23087U 94023A   25298.15965132 -.00000162  00000+0 -60229-4 0  9999
2 23087  71.0510  98.6439 0010912 243.3908 116.6097 14.14331847625646
SL-16 R/B               
1 23088U 94023B   25298.19758199  .00000344  00000+0  20231-3 0  9995
2 23088  71.0019 355.4285 0002650 185.3678 174.7417 14.14987849626925
SL-16 R/B               
1 23343U 94074B   25298.09927361  .00000718  00000+0  10334-3 0  9991
2 23343  97.7268 329.3209 0005457 311.6623  68.4789 14.79206124667206
SL-16 R/B               
1 23405U 94077B   25298.30266481 -.00000203  00000+0 -79528-4 0  9998
2 23405  70.9815 277.3113 0003339 321.7201  38.3684 14.15539878597075
ARIANE 40+ R/B          
1 23561U 95021B   25298.22671465  .00000496  00000+0  17244-3 0  9992
2 23561  98.4705   6.3890 0006823 178.5326 250.8813 14.39638853599751
SL-16 R/B               
1 23705U 95058B   25297.87893093  .00000051  00000+0  50692-4 0  9997
2 23705  71.0183 105.3839 0013885 318.9584  41.0493 14.15467347548630
SL-16 R/B               
1 24298U 96051B   25298.18784383 -.00000114  00000+0 -35204-4 0  9999
2 24298  70.7578 102.0470 0016850 324.1217  35.8770 14.12392745502516
ORBVIEW 2 (SEASTAR)     
1 24883U 97037A   25298.32940547  .00000539  00000+0  20408-3 0  9994
2 24883  98.8437  94.1945 0003210  97.1249 263.0300 14.35361821489050
SL-16 R/B               
1 25400U 98043G   25298.31436568  .00000140  00000+0  77514-4 0  9999
2 25400  98.8037 245.8825 0010728  51.0555 309.1579 14.26007185419698
SL-16 R/B               
1 25407U 98045B   25297.88587834  .00000006  00000+0  27046-4 0  9998
2 25407  71.0083 107.1618 0009358 240.8134 119.2054 14.16161360407877
ISS (ZARYA)             
1 25544U 98067A   25298.16845503  .00018212  00000+0  33268-3 0  9996
2 25544  51.6349  22.9463 0004587 335.6556  24.4216 15.49445289535321
CZ-4B R/B               
1 25732U 99025C   25298.14103969  .00000120  00000+0  78807-4 0  9999
2 25732  98.6842 340.4892 0037368  16.4021  48.5271 14.18225924368955
OKEAN-O                 
1 25860U 99039A   25298.11461421  .00001080  00000+0  14954-3 0  9991
2 25860  97.9672 354.2217 0001891  81.8176 278.3250 14.80039681414339
SL-16 R/B               
1 25861U 99039B   25298.15675809  .00000923  00000+0  12459-3 0  9996
2 25861  98.0197 352.2881 0014367 342.2992  17.7718 14.81483221416791
DELTA 2 R/B             
1 25876U 99041E   25297.92016344  .00001184  00000+0  22921-3 0  9997
2 25876  51.7632 123.2889 0504482 307.8689  47.7610 14.11238506343850
HELIOS 1B               
1 25977U 99064A   25298.22412921  .00002489  00000+0  28453-3 0  9994
2 25977  98.1759 191.4601 0002261 108.4280 251.7181 14.86987313665122
TERRA                   
1 25994U 99068A   25298.31209817  .00000732  00000+0  15871-3 0  9994
2 25994  97.9819 351.7547 0001097 227.7975 201.2201 14.60868820375312
SL-16 R/B               
1 26070U 00006B   25298.21939696  .00000088  00000+0  69215-4 0  9994
2 26070  71.0043  22.6771 0015641  20.2679 339.9062 14.15793831329389
TITAN 4B R/B            
1 26474U 00047B   25298.27475464  .00007100  00000+0  45548-3 0  9995
2 26474  67.9909  60.9136 0043983 199.9177 160.0258 15.08231651372488
ENVISAT                 
1 27386U 02009A   25298.31945050  .00000231  00000+0  88734-4 0  9999
2 27386  98.3515 250.3083 0001340  86.2723  67.9889 14.38972207239707
IDEFIX & ARIANE 42P R/B 
1 27422U 02021B   25298.26509450  .00000486  00000+0  20181-3 0  9991
2 27422  98.5707 233.6053 0010870 222.8357 137.1979 14.30897141224656
AQUA                    
1 27424U 02022A   25298.31288434  .00001675  00000+0  34666-3 0  9990
2 27424  98.3960 258.4304 0001525  53.9511 110.5847 14.61634305248956
CZ-4B R/B               
1 27432U 02024C   25298.11495038  .00000092  00000+0  70096-4 0  9999
2 27432  98.9073 347.0381 0050903  48.8473 338.8080 14.14513374210076
MIDORI II (ADEOS-II)    
1 27597U 02056A   25298.26857189  .00000473  00000+0  20407-3 0  9994
2 27597  98.7551 250.9918 0001979  59.5438 300.5939 14.29155319190954
H-2A R/B                
1 27601U 02056E   25298.32712852  .00000449  00000+0  17223-3 0  9999
2 27601  98.2986 259.0318 0069696 204.1315 281.8042 14.33625113194716
CZ-4B R/B               
1 28059U 03049C   25298.24699621  .00000735  00000+0  18059-3 0  9995
2 28059  98.6752 282.9879 0047153 285.5670  74.0324 14.54839724166900
CZ-2C R/B               
1 28222U 04012C   25298.29627544  .00039676  00000+0  66876-3 0  9994
2 28222  97.7499 347.0607 0021133  88.3330 272.0341 15.51326373183204
SL-16 R/B               
1 28353U 04021B   25298.04124842 -.00000240  00000+0 -99907-4 0  9994
2 28353  70.9995 157.1603 0007427 254.1325 105.8979 14.14573117103655
CZ-4B R/B               
1 28415U 04035C   25298.06317917  .00009642  00000+0  36782-3 0  9991
2 28415  97.3672 329.0783 0036043  89.3201 271.2167 15.26262308159205
CZ-2C R/B               
1 28480U 04046B   25298.22443645  .00000241  00000+0  10482-3 0  9996
2 28480  98.1940 216.6298 0139139 194.9928 164.7110 14.26909372 89186
